IRIDIUM 150             
1 43257U 18030J   25308.63304860  .00000206  00000+0  66591-4 0  9999
2 43257  86.4010  24.3327 0001970  96.6508 263.4912 14.34218275397973
IRIDIUM 143             
1 43258U 18030K   25308.68378970 -.00000012  00000+0 -11233-4 0  9998
2 43258  86.4006  24.3949 0001795 101.4312 258.7085 14.34217411397915
IRIDIUM 161             
1 43478U 18047C   25308.88375694  .00000407  00000+0  11511-3 0  9996
2 43478  86.4540 182.1834 0002283  83.5672 276.5789 14.43282174392787
IRIDIUM 152             
1 43479U 18047D   25308.58673957  .00000112  00000+0  32835-4 0  9993
2 43479  86.4016 182.1680 0002206  81.8710 278.2736 14.34217864390293
IRIDIUM 147             
1 43480U 18047E   25308.66285027  .00000257  00000+0  84671-4 0  9996
2 43480  86.4021 182.1371 0002070  86.2082 273.9350 14.34217627390301
IRIDIUM 110             
1 43481U 18047F   25308.59942534  .00000296  00000+0  98776-4 0  9996
2 43481  86.4014 182.2498 0002601  82.5208 277.6283 14.34218885390284
IRIDIUM 162             
1 43482U 18047G   25308.60010122  .00000427  00000+0  12101-3 0  9991
2 43482  86.4540 182.1958 0002157  76.9549 283.1892 14.43275750392734
IRIDIUM 160             
1 43569U 18061A   25308.54525889 -.00000008  00000+0 -98160-5 0  9995
2 43569  86.3983 150.7079 0002235  88.9061 271.2391 14.34217867381177
